{
  "type": "FeatureCollection",
  "features": [
    {
      "type": "Feature",
      "properties": {
        "norad_id": 39773,
        "name": "EUTELSAT 3B",
        "group": "eutelsat",
        "lat": 0.01792198434337384,
        "lon": 164.74800289769956,
        "alt_km": 35779.11499996471,
        "timestamp": "2025-12-18T04:58:34.252024+00:00",
        "meta_object_name": "EUTELSAT 3B",
        "meta_object_id": "2014-030A",
        "meta_epoch": "2025-12-17T18:28:37.949088",
        "meta_mean_motion": 1.00272044,
        "meta_eccentricity": 0.00042366,
        "meta_inclination": 0.0605,
        "meta_ra_of_asc_node": 0.3978,
        "meta_arg_of_pericenter": 231.5414,
        "meta_mean_anomaly": 134.9492,
        "meta_ephemeris_type": 0,
        "meta_classification_type": "U",
        "meta_norad_cat_id": 39773,
        "meta_element_set_no": 999,
        "meta_rev_at_epoch": 4224,
        "meta_bstar": 0,
        "meta_mean_motion_dot": 4.5e-07,
        "meta_mean_motion_ddot": 0,
        "tle_line1": "1 39773U 14030A   25351.76988367  .00000045  00000+0  00000+0 0  9994",
        "tle_line2": "2 39773   0.0605   0.3978 0004236 231.5414 134.9492  1.00272044 42248"
      },
      "geometry": {
        "type": "Point",
        "coordinates": [
          164.74800289769956,
          0.01792198434337384
        ]
      }
    },
    {
      "type": "Feature",
      "properties": {
        "norad_id": 40425,
        "name": "EUTELSAT 115 WEST B",
        "group": "eutelsat",
        "lat": -0.014103579072131072,
        "lon": 46.79150082688524,
        "alt_km": 35789.08922773798,
        "timestamp": "2025-12-18T04:58:34.252043+00:00",
        "meta_object_name": "EUTELSAT 115 WEST B",
        "meta_object_id": "2015-010B",
        "meta_epoch": "2025-12-17T16:12:13.512096",
        "meta_mean_motion": 1.00267064,
        "meta_eccentricity": 4.229e-05,
        "meta_inclination": 0.0106,
        "meta_ra_of_asc_node": 156.1605,
        "meta_arg_of_pericenter": 53.1601,
        "meta_mean_anomaly": 5.3821,
        "meta_ephemeris_type": 0,
        "meta_classification_type": "U",
        "meta_norad_cat_id": 40425,
        "meta_element_set_no": 999,
        "meta_rev_at_epoch": 3957,
        "meta_bstar": 0,
        "meta_mean_motion_dot": 1e-08,
        "meta_mean_motion_ddot": 0,
        "tle_line1": "1 40425U 15010B   25351.67515639  .00000001  00000+0  00000+0 0  9999",
        "tle_line2": "2 40425   0.0106 156.1605 0000422  53.1601   5.3821  1.00267064 39571"
      },
      "geometry": {
        "type": "Point",
        "coordinates": [
          46.79150082688524,
          -0.014103579072131072
        ]
      }
    },
    {
      "type": "Feature",
      "properties": {
        "norad_id": 40875,
        "name": "EUTELSAT 8 WEST B",
        "group": "eutelsat",
        "lat": 0.02559531595413045,
        "lon": 153.67187129370197,
        "alt_km": 35793.594039026626,
        "timestamp": "2025-12-18T04:58:34.252056+00:00",
        "meta_object_name": "EUTELSAT 8 WEST B",
        "meta_object_id": "2015-039B",
        "meta_epoch": "2025-12-17T18:25:30.747936",
        "meta_mean_motion": 1.00271856,
        "meta_eccentricity": 0.00043012,
        "meta_inclination": 0.0639,
        "meta_ra_of_asc_node": 351.693,
        "meta_arg_of_pericenter": 276.4787,
        "meta_mean_anomaly": 86.8592,
        "meta_ephemeris_type": 0,
        "meta_classification_type": "U",
        "meta_norad_cat_id": 40875,
        "meta_element_set_no": 999,
        "meta_rev_at_epoch": 3783,
        "meta_bstar": 0,
        "meta_mean_motion_dot": -4e-07,
        "meta_mean_motion_ddot": 0,
        "tle_line1": "1 40875U 15039B   25351.76771699 -.00000040  00000+0  00000+0 0  9993",
        "tle_line2": "2 40875   0.0639 351.6930 0004301 276.4787  86.8592  1.00271856 37839"
      },
      "geometry": {
        "type": "Point",
        "coordinates": [
          153.67187129370197,
          0.02559531595413045
        ]
      }
    },
    {
      "type": "Feature",
      "properties": {
        "norad_id": 41310,
        "name": "EUTELSAT 9B",
        "group": "eutelsat",
        "lat": 0.04985256115124399,
        "lon": 170.64279112774358,
        "alt_km": 35790.29708437111,
        "timestamp": "2025-12-18T04:58:34.252068+00:00",
        "meta_object_name": "EUTELSAT 9B",
        "meta_object_id": "2016-005A",
        "meta_epoch": "2025-12-17T18:30:15.294240",
        "meta_mean_motion": 1.00271916,
        "meta_eccentricity": 0.0004478,
        "meta_inclination": 0.0567,
        "meta_ra_of_asc_node": 69.7929,
        "meta_arg_of_pericenter": 204.0571,
        "meta_mean_anomaly": 99.3453,
        "meta_ephemeris_type": 0,
        "meta_classification_type": "U",
        "meta_norad_cat_id": 41310,
        "meta_element_set_no": 999,
        "meta_rev_at_epoch": 3629,
        "meta_bstar": 0,
        "meta_mean_motion_dot": 8.7e-07,
        "meta_mean_motion_ddot": 0,
        "tle_line1": "1 41310U 16005A   25351.77101035  .00000087  00000+0  00000+0 0  9994",
        "tle_line2": "2 41310   0.0567  69.7929 0004478 204.0571  99.3453  1.00271916 36293"
      },
      "geometry": {
        "type": "Point",
        "coordinates": [
          170.64279112774358,
          0.04985256115124399
        ]
      }
    },
    {
      "type": "Feature",
      "properties": {
        "norad_id": 41382,
        "name": "EUTELSAT 65 WEST A",
        "group": "eutelsat",
        "lat": 0.06606543388821293,
        "lon": 96.48859223554807,
        "alt_km": 35796.40550146355,
        "timestamp": "2025-12-18T04:58:34.252080+00:00",
        "meta_object_name": "EUTELSAT 65 WEST A",
        "meta_object_id": "2016-014A",
        "meta_epoch": "2025-12-17T18:09:09.814176",
        "meta_mean_motion": 1.00270073,
        "meta_eccentricity": 0.00023147,
        "meta_inclination": 0.0567,
        "meta_ra_of_asc_node": 325.978,
        "meta_arg_of_pericenter": 310.7281,
        "meta_mean_anomaly": 17.001,
        "meta_ephemeris_type": 0,
        "meta_classification_type": "U",
        "meta_norad_cat_id": 41382,
        "meta_element_set_no": 999,
        "meta_rev_at_epoch": 3571,
        "meta_bstar": 0,
        "meta_mean_motion_dot": -2.51e-06,
        "meta_mean_motion_ddot": 0,
        "tle_line1": "1 41382U 16014A   25351.75636359 -.00000251  00000+0  00000+0 0  9997",
        "tle_line2": "2 41382   0.0567 325.9780 0002314 310.7281  17.0010  1.00270073 35719"
      },
      "geometry": {
        "type": "Point",
        "coordinates": [
          96.48859223554807,
          0.06606543388821293
        ]
      }
    },
    {
      "type": "Feature",
      "properties": {
        "norad_id": 41589,
        "name": "EUTELSAT 117 WEST B",
        "group": "eutelsat",
        "lat": -0.013438782610891068,
        "lon": 44.71432463367197,
        "alt_km": 35787.560812035605,
        "timestamp": "2025-12-18T04:58:34.252092+00:00",
        "meta_object_name": "EUTELSAT 117 WEST B",
        "meta_object_id": "2016-038B",
        "meta_epoch": "2025-12-17T21:19:49.567296",
        "meta_mean_motion": 1.00271876,
        "meta_eccentricity": 3.601e-05,
        "meta_inclination": 0.0113,
        "meta_ra_of_asc_node": 157.4202,
        "meta_arg_of_pericenter": 73.0441,
        "meta_mean_anomaly": 59.2611,
        "meta_ephemeris_type": 0,
        "meta_classification_type": "U",
        "meta_norad_cat_id": 41589,
        "meta_element_set_no": 999,
        "meta_rev_at_epoch": 3484,
        "meta_bstar": 0,
        "meta_mean_motion_dot": 1.3e-07,
        "meta_mean_motion_ddot": 0,
        "tle_line1": "1 41589U 16038B   25351.88876814  .00000013  00000+0  00000+0 0  9993",
        "tle_line2": "2 41589   0.0113 157.4202 0000360  73.0441  59.2611  1.00271876 34848"
      },
      "geometry": {
        "type": "Point",
        "coordinates": [
          44.71432463367197,
          -0.013438782610891068
        ]
      }
    },
    {
      "type": "Feature",
      "properties": {
        "norad_id": 42741,
        "name": "EUTELSAT 172B",
        "group": "eutelsat",
        "lat": -0.018151787259517316,
        "lon": -26.305107235896795,
        "alt_km": 35786.38508092087,
        "timestamp": "2025-12-18T04:58:34.252105+00:00",
        "meta_object_name": "EUTELSAT 172B",
        "meta_object_id": "2017-029B",
        "meta_epoch": "2025-12-17T19:16:48.336672",
        "meta_mean_motion": 1.00272275,
        "meta_eccentricity": 2.088e-05,
        "meta_inclination": 0.0467,
        "meta_ra_of_asc_node": 146.77,
        "meta_arg_of_pericenter": 308.0341,
        "meta_mean_anomaly": 93.0643,
        "meta_ephemeris_type": 0,
        "meta_classification_type": "U",
        "meta_norad_cat_id": 42741,
        "meta_element_set_no": 999,
        "meta_rev_at_epoch": 3191,
        "meta_bstar": 0,
        "meta_mean_motion_dot": 2e-07,
        "meta_mean_motion_ddot": 0,
        "tle_line1": "1 42741U 17029B   25351.80333723  .00000020  00000+0  00000+0 0  9992",
        "tle_line2": "2 42741   0.0467 146.7700 0000208 308.0341  93.0643  1.00272275 31916"
      },
      "geometry": {
        "type": "Point",
        "coordinates": [
          -26.305107235896795,
          -0.018151787259517316
        ]
      }
    }
  ]
}